CCSDS_OMM_VERS = 2.0
CREATION_DATE  = 
ORIGINATOR     = 

OBJECT_NAME    = STARLINK-36383
OBJECT_ID      = 2026-036U
CENTER_NAME    = EARTH
REF_FRAME      = TEME
TIME_SYSTEM    = UTC
MEAN_ELEMENT_THEORY = SGP/SGP4

EPOCH          = 2026-03-03T04:00:01.999584
MEAN_MOTION    = 15.86835131
ECCENTRICITY   = .0001695
INCLINATION    = 42.9949
RA_OF_ASC_NODE = 289.6243
ARG_OF_PERICENTER = 275.1165
MEAN_ANOMALY   = 268.0383

EPHEMERIS_TYPE = 0
CLASSIFICATION_TYPE = U
NORAD_CAT_ID   = 67922
ELEMENT_SET_NO = 999
REV_AT_EPOCH   = 260
BSTAR          = -.69278E-2
MEAN_MOTION_DOT = -.1610869E-1
MEAN_MOTION_DDOT = 0

CCSDS_OMM_VERS = 2.0
CREATION_DATE  = 
ORIGINATOR     = 

OBJECT_NAME    = STARLINK-36406
OBJECT_ID      = 2026-036V
CENTER_NAME    = EARTH
REF_FRAME      = TEME
TIME_SYSTEM    = UTC
MEAN_ELEMENT_THEORY = SGP/SGP4

EPOCH          = 2026-03-03T04:00:01.999584
MEAN_MOTION    = 15.86999028
ECCENTRICITY   = .0001658
INCLINATION    = 42.9949
RA_OF_ASC_NODE = 289.6156
ARG_OF_PERICENTER = 276.0469
MEAN_ANOMALY   = 270.5518

EPHEMERIS_TYPE = 0
CLASSIFICATION_TYPE = U
NORAD_CAT_ID   = 67923
ELEMENT_SET_NO = 999
REV_AT_EPOCH   = 260
BSTAR          = -.68742E-2
MEAN_MOTION_DOT = -.1611422E-1
MEAN_MOTION_DDOT = 0

CCSDS_OMM_VERS = 2.0
CREATION_DATE  = 
ORIGINATOR     = 

OBJECT_NAME    = STARLINK-36714
OBJECT_ID      = 2026-036W
CENTER_NAME    = EARTH
REF_FRAME      = TEME
TIME_SYSTEM    = UTC
MEAN_ELEMENT_THEORY = SGP/SGP4

EPOCH          = 2026-03-03T04:00:01.999584
MEAN_MOTION    = 15.87162769
ECCENTRICITY   = .0001647
INCLINATION    = 42.9950
RA_OF_ASC_NODE = 289.6069
ARG_OF_PERICENTER = 278.5684
MEAN_ANOMALY   = 271.4425

EPHEMERIS_TYPE = 0
CLASSIFICATION_TYPE = U
NORAD_CAT_ID   = 67924
ELEMENT_SET_NO = 999
REV_AT_EPOCH   = 260
BSTAR          = -.68164E-2
MEAN_MOTION_DOT = -.1611052E-1
MEAN_MOTION_DDOT = 0

CCSDS_OMM_VERS = 2.0
CREATION_DATE  = 
ORIGINATOR     = 

OBJECT_NAME    = STARLINK-36726
OBJECT_ID      = 2026-036X
CENTER_NAME    = EARTH
REF_FRAME      = TEME
TIME_SYSTEM    = UTC
MEAN_ELEMENT_THEORY = SGP/SGP4

EPOCH          = 2026-03-03T04:00:01.999584
MEAN_MOTION    = 15.87344660
ECCENTRICITY   = .0001628
INCLINATION    = 42.9948
RA_OF_ASC_NODE = 289.5987
ARG_OF_PERICENTER = 276.1303
MEAN_ANOMALY   = 277.1472

EPHEMERIS_TYPE = 0
CLASSIFICATION_TYPE = U
NORAD_CAT_ID   = 67925
ELEMENT_SET_NO = 999
REV_AT_EPOCH   = 260
BSTAR          = -.67459E-2
MEAN_MOTION_DOT = -.1609226E-1
MEAN_MOTION_DDOT = 0

CCSDS_OMM_VERS = 2.0
CREATION_DATE  = 
ORIGINATOR     = 

OBJECT_NAME    = STARLINK-36758
OBJECT_ID      = 2026-036Y
CENTER_NAME    = EARTH
REF_FRAME      = TEME
TIME_SYSTEM    = UTC
MEAN_ELEMENT_THEORY = SGP/SGP4

EPOCH          = 2026-03-03T04:00:01.999584
MEAN_MOTION    = 15.87487864
ECCENTRICITY   = .0001685
INCLINATION    = 42.9947
RA_OF_ASC_NODE = 289.5897
ARG_OF_PERICENTER = 274.9610
MEAN_ANOMALY   = 281.7491

EPHEMERIS_TYPE = 0
CLASSIFICATION_TYPE = U
NORAD_CAT_ID   = 67926
ELEMENT_SET_NO = 999
REV_AT_EPOCH   = 260
BSTAR          = -.66524E-2
MEAN_MOTION_DOT = -.159978E-1
MEAN_MOTION_DDOT = 0

CCSDS_OMM_VERS = 2.0
CREATION_DATE  = 
ORIGINATOR     = 

OBJECT_NAME    = STARLINK-36728
OBJECT_ID      = 2026-036Z
CENTER_NAME    = EARTH
REF_FRAME      = TEME
TIME_SYSTEM    = UTC
MEAN_ELEMENT_THEORY = SGP/SGP4

EPOCH          = 2026-03-03T04:00:01.999584
MEAN_MOTION    = 15.87761178
ECCENTRICITY   = .0001666
INCLINATION    = 42.9947
RA_OF_ASC_NODE = 289.5718
ARG_OF_PERICENTER = 274.9818
MEAN_ANOMALY   = 288.7548

EPHEMERIS_TYPE = 0
CLASSIFICATION_TYPE = U
NORAD_CAT_ID   = 67927
ELEMENT_SET_NO = 999
REV_AT_EPOCH   = 260
BSTAR          = -.65962E-2
MEAN_MOTION_DOT = -.1607125E-1
MEAN_MOTION_DDOT = 0

CCSDS_OMM_VERS = 2.0
CREATION_DATE  = 
ORIGINATOR     = 

OBJECT_NAME    = STARLINK-36771
OBJECT_ID      = 2026-036AA
CENTER_NAME    = EARTH
REF_FRAME      = TEME
TIME_SYSTEM    = UTC
MEAN_ELEMENT_THEORY = SGP/SGP4

EPOCH          = 2026-03-03T04:00:01.999584
MEAN_MOTION    = 15.87604668
ECCENTRICITY   = .0001577
INCLINATION    = 42.9946
RA_OF_ASC_NODE = 289.5802
ARG_OF_PERICENTER = 273.6491
MEAN_ANOMALY   = 286.7389

EPHEMERIS_TYPE = 0
CLASSIFICATION_TYPE = U
NORAD_CAT_ID   = 67928
ELEMENT_SET_NO = 999
REV_AT_EPOCH   = 260
BSTAR          = -.66437E-2
MEAN_MOTION_DOT = -.1606074E-1
MEAN_MOTION_DDOT = 0

CCSDS_OMM_VERS = 2.0
CREATION_DATE  = 
ORIGINATOR     = 

OBJECT_NAME    = STARLINK-36809
OBJECT_ID      = 2026-036AB
CENTER_NAME    = EARTH
REF_FRAME      = TEME
TIME_SYSTEM    = UTC
MEAN_ELEMENT_THEORY = SGP/SGP4

EPOCH          = 2026-03-03T04:00:01.999584
MEAN_MOTION    = 15.87901420
ECCENTRICITY   = .0001678
INCLINATION    = 42.9946
RA_OF_ASC_NODE = 289.5631
ARG_OF_PERICENTER = 271.0723
MEAN_ANOMALY   = 296.1196

EPHEMERIS_TYPE = 0
CLASSIFICATION_TYPE = U
NORAD_CAT_ID   = 67929
ELEMENT_SET_NO = 999
REV_AT_EPOCH   = 260
BSTAR          = -.65616E-2
MEAN_MOTION_DOT = -.1609696E-1
MEAN_MOTION_DDOT = 0

CCSDS_OMM_VERS = 2.0
CREATION_DATE  = 
ORIGINATOR     = 

OBJECT_NAME    = STARLINK-36865
OBJECT_ID      = 2026-036AC
CENTER_NAME    = EARTH
REF_FRAME      = TEME
TIME_SYSTEM    = UTC
MEAN_ELEMENT_THEORY = SGP/SGP4

EPOCH          = 2026-03-03T04:00:01.999584
MEAN_MOTION    = 15.88170000
ECCENTRICITY   = .0001695
INCLINATION    = 42.9945
RA_OF_ASC_NODE = 289.5456
ARG_OF_PERICENTER = 272.5067
MEAN_ANOMALY   = 301.6028

EPHEMERIS_TYPE = 0
CLASSIFICATION_TYPE = U
NORAD_CAT_ID   = 67930
ELEMENT_SET_NO = 999
REV_AT_EPOCH   = 260
BSTAR          = -.64882E-2
MEAN_MOTION_DOT = -.1612963E-1
MEAN_MOTION_DDOT = 0

CCSDS_OMM_VERS = 2.0
CREATION_DATE  = 
ORIGINATOR     = 

OBJECT_NAME    = STARLINK-36781
OBJECT_ID      = 2026-036AD
CENTER_NAME    = EARTH
REF_FRAME      = TEME
TIME_SYSTEM    = UTC
MEAN_ELEMENT_THEORY = SGP/SGP4

EPOCH          = 2026-03-03T04:00:01.999584
MEAN_MOTION    = 15.88037732
ECCENTRICITY   = .0001634
INCLINATION    = 42.9947
RA_OF_ASC_NODE = 289.5546
ARG_OF_PERICENTER = 274.9826
MEAN_ANOMALY   = 295.6478

EPHEMERIS_TYPE = 0
CLASSIFICATION_TYPE = U
NORAD_CAT_ID   = 67931
ELEMENT_SET_NO = 999
REV_AT_EPOCH   = 260
BSTAR          = -.65085E-2
MEAN_MOTION_DOT = -.1607897E-1
MEAN_MOTION_DDOT = 0

